GSAT0101 (PRN E11)      
1 37846U 11060A   20202.38757180 -.00000045  00000-0  00000-0 0  9991
2 37846  56.6497  40.3774 0002829  29.1875 330.8957  1.70475464 54333
GSAT0102 (PRN E12)      
1 37847U 11060B   20200.84912388 -.00000047  00000-0  00000+0 0  9995
2 37847  56.6491  40.4190 0002923 345.1505 196.8440  1.70475629 54438
GSAT0103 (PRN E19)      
1 38857U 12055A   20201.25621244  .00000041  00000-0  00000-0 0  9990
2 38857  54.9850 160.9065 0004597 273.4191  86.4798  1.70473765 48355
GSAT0104 (PRN E20)      
1 38858U 12055B   20202.95033270  .00000036  00000-0  00000-0 0  9999
2 38858  54.9837 160.8593 0003491 281.8776  78.0321  1.70473696 48385
GSAT0201 (PRN E18)      
1 40128U 14050A   20201.74117376 -.00000087  00000-0  00000+0 0  9991
2 40128  50.5670   0.0842 1663308 100.4241 278.7260  1.85518841 40213
GSAT0202 (PRN E14)      
1 40129U 14050B   20203.62177312 -.00000084  00000-0  00000+0 0  9994
2 40129  50.6033 359.0471 1661137 101.3073 277.7904  1.85519499 40443
GSAT0203 (PRN E26)      
1 40544U 15017A   20202.75510867 -.00000045  00000-0  00000+0 0  9995
2 40544  56.4429  40.4965 0001682 232.8823 127.1687  1.70474750 33083
GSAT0204 (PRN E22)      
1 40545U 15017B   20203.70941886 -.00000046  00000-0  00000+0 0  9992
2 40545  56.4499  40.4860 0002070 146.9328 213.1434  1.70475090 33109
GSAT0205 (PRN E24)      
1 40889U 15045A   20198.08615917 -.00000015  00000-0  00000+0 0  9997
2 40889  56.1291 281.3144 0002309   0.3513 359.7087  1.70475660 30158
GSAT0206 (PRN E30)      
1 40890U 15045B   20201.82524322  .00000007  00000-0  00000-0 0  9996
2 40890  56.1253 281.2080 0001166 306.6897  53.3806  1.70475604 30247
GSAT0209 (PRN E09)      
1 41174U 15079A   20201.99770490  .00000038  00000-0  00000-0 0  9990
2 41174  55.0001 160.5841 0005764 308.2863  51.6113  1.70472979 28156
GSAT0208 (PRN E08)      
1 41175U 15079B   20203.39061640  .00000035  00000-0  00000-0 0  9994
2 41175  54.9982 160.5454 0004922 308.7025  51.2026  1.70473070 28593
GSAT0211 (PRN E02)      
1 41549U 16030A   20201.75298458  .00000008  00000-0  00000+0 0  9993
2 41549  56.2673 281.0696 0003099 286.4297  73.6172  1.70475297 25853
GSAT0210 (PRN E01)      
1 41550U 16030B   20203.21907231  .00000011  00000-0  00000-0 0  9999
2 41550  56.2661 281.0311 0003565 253.7586 106.2892  1.70475393 25895
GSAT0207 (PRN E07)      
1 41859U 16069A   20202.87717129  .00000036  00000-0  00000-0 0  9996
2 41859  54.6582 160.9142 0005620 297.7831  62.1085  1.70472964 22783
GSAT0212 (PRN E03)      
1 41860U 16069B   20202.14402699  .00000038  00000-0  00000-0 0  9993
2 41860  54.6554 160.9335 0004611 315.3176  44.5944  1.70472915 22869
GSAT0213 (PRN E04)      
1 41861U 16069C   20203.09644575  .00000035  00000-0  00000-0 0  9997
2 41861  54.6580 160.9110 0004772 280.6025  79.2924  1.70473071 22884
GSAT0214 (PRN E05)      
1 41862U 16069D   20203.24344936  .00000035  00000-0  00000-0 0  9993
2 41862  54.6567 160.9024 0003993 286.7247  73.1803  1.70472957 22871
GSAT0215 (PRN E21)      
1 43055U 17079A   20201.97387734  .00000009  00000-0  00000-0 0  9993
2 43055  56.2418 280.9068 0003103 244.4046 115.6456  1.70474457 16193
GSAT0216 (PRN E25)      
1 43056U 17079B   20199.92025789 -.00000002  00000-0  00000+0 0  9997
2 43056  56.2443 280.9629 0004738 255.6156 104.4019  1.70474642 16148
GSAT0217 (PRN E27)      
1 43057U 17079C   20202.48667222  .00000010  00000-0  00000+0 0  9996
2 43057  56.2404 280.8931 0004118 264.9507  95.0871  1.70474555 16207
GSAT0218 (PRN E31)      
1 43058U 17079D   20202.70666639  .00000011  00000-0  00000+0 0  9994
2 43058  56.2403 280.8844 0005354 253.8008 106.2259  1.70474512 16204
GSAT0221 (PRN E15)      
1 43564U 18060A   20199.08696347 -.00000052  00000-0  00000-0 0  9999
2 43564  56.8280  40.2329 0002271 277.3710  82.6707  1.70475821 12325
GSAT0222 (PRN E33)      
1 43565U 18060B   20201.06656781 -.00000046  00000-0  00000-0 0  9993
2 43565  56.8314  40.1781 0002049 293.6194  66.4280  1.70475788 12402
GSAT0219 (PRN E36)      
1 43566U 18060C   20200.70027128 -.00000047  00000-0  00000+0 0  9991
2 43566  56.8317  40.1899 0001661 283.7991  76.2515  1.70475698 12376
GSAT0220 (PRN E13)      
1 43567U 18060D   20202.09330693 -.00000044  00000-0  00000-0 0  9998
2 43567  56.8319  40.1527 0001822 286.6905  73.3571  1.70475620 12389
